satname,norad_id,inclination_deg,eccentricity,mean_motion_rev_per_day,perigee_km,apogee_km,l1,l2
STARLINK-1202,45183,53.1591,0.0001378,15.30190426,474.29925995227586,476.1880516610163,1 45183U 20012F   26085.86628978 -.00002568  00000+0 -74617-4 0  9992,2 45183  53.1591 319.4697 0001378  68.3263 291.7885 15.30190426337580
STARLINK-1216,45185,53.1596,6.86e-05,15.30197659,474.75191880080456,475.6921996637311,1 45185U 20012H   26085.66086527  .00005539  00000+0  19899-3 0  9999,2 45185  53.1596 320.4012 0000686  48.4253 311.6806 15.30197659337499
STARLINK-1225,45187,53.1606,0.0001294,15.30201994,474.3222927138395,476.0959386885834,1 45187U 20012K   26085.91903316  .00001453  00000+0  61161-4 0  9994,2 45187  53.1606 319.6416 0001294  85.5022 274.6126 15.30201994337573
STARLINK-1230,45189,53.1597,0.0001247,15.30193707,474.37924390124954,476.0884745935464,1 45189U 20012M   26085.66726925  .00001949  00000+0  77914-4 0  9990,2 45189  53.1597 320.8746 0001247  82.7212 277.3930 15.30193707334765
STARLINK-1234,45190,53.0423,0.0005736,15.65239067,368.67909893395336,376.4234885445312,1 45190U 20012N   26084.17900492  .00053515  00000+0  53146-3 0  9996,2 45190  53.0423 249.3812 0005736 343.3615  16.7211 15.65239067338302
STARLINK-1269,45197,53.1603,0.0001428,15.30196975,474.2454415736447,476.20276150424525,1 45197U 20012V   26084.94563506  .00001943  00000+0  77728-4 0  9990,2 45197  53.1603 324.0846 0001428  89.3845 270.7319 15.30196975337407
STARLINK-1154,45198,53.0475,0.0005788,15.48655271,416.7237693683992,424.5940555166426,1 45198U 20012W   26085.54220335  .00068180  00000+0  12508-2 0  9997,2 45198  53.0475 289.4413 0005788 154.2077 205.9219 15.48655271337902
STARLINK-1199,45201,53.1569,0.0001041,15.30200396,474.5004532076173,475.9273208622981,1 45201U 20012Z   26085.89463491  .00002541  00000+0  97898-4 0  9998,2 45201  53.1569 303.9203 0001041  86.9349 273.1771 15.30200396337794
STARLINK-1209,45206,53.0463,0.0007731,15.53814021,400.3578077077891,410.84682543907365,1 45206U 20012AE  26084.76852621  .00116247  00000+0  17581-2 0  9993,2 45206  53.0463 255.9902 0007731 326.3430  33.7088 15.53814021337418
STARLINK-1231,45212,53.0416,0.0003876,15.22460624,495.7559341489887,501.08664213395605,1 45212U 20012AL  26085.88596365  .00024337  00000+0  10487-2 0  9990,2 45212  53.0416 296.7211 0003876 156.0408 204.0769 15.22460624337846
STARLINK-1271,45217,53.1585,0.0001372,15.30205449,474.25852206407035,476.1390774075171,1 45217U 20012AR  26085.63128546  .00000842  00000+0  40551-4 0  9992,2 45217  53.1585 305.2707 0001372 105.0943 255.0210 15.30205449337750
STARLINK-1191,45222,53.1592,1.92e-05,15.31596571,470.9168246847494,471.1798334013847,1 45222U 20012AW  26085.90535542  .00061094  00000+0  19707-2 0  9999,2 45222  53.1592 278.7818 0000192 253.6801 106.4179 15.31596571338151
STARLINK-1212,45223,53.0475,0.0004283,15.55173238,398.74531224777184,404.55287701643374,1 45223U 20012AX  26085.89686248  .00110679  00000+0  15955-2 0  9993,2 45223  53.0475 267.0553 0004283 194.8618 165.2267 15.55173238338311
STARLINK-1215,45225,53.1574,0.0001383,15.30204839,474.2528044826404,476.1484376686294,1 45225U 20012AZ  26085.89879868  .00000742  00000+0  37179-4 0  9990,2 45225  53.1574 278.3690 0001383  94.6616 265.4542 15.30204839338116
STARLINK-1221,45227,53.0639,0.0003635,15.42511302,436.22252823959843,441.17836906476714,1 45227U 20012BB  26084.59428999  .00017571  00000+0  40745-3 0  9993,2 45227  53.0639 194.2140 0003635  70.6357 289.5041 15.42511302339169
STARLINK-1222,45228,53.0549,0.0003405,15.50508358,412.92764270430234,417.553932977823,1 45228U 20012BC  26084.22458429  .00021915  00000+0  38438-3 0  9998,2 45228  53.0549 268.2747 0003405 131.9851 228.1447 15.50508358338030
STARLINK-1226,45229,53.159,0.0001988,15.34079246,462.2966061982288,465.01690339513607,1 45229U 20012BD  26085.91668981  .01671983  00000+0  45265-1 0  9993,2 45229  53.1590 278.5039 0001988  80.4737 264.5398 15.34079246  5807
STARLINK-1227,45230,53.1578,0.0001766,15.34637925,460.78820081420054,463.2041358492561,1 45230U 20012BE  26085.91668981  .01658583  00000+0  44153-1 0  9991,2 45230  53.1578 278.6704 0001766  69.9993 198.2757 15.34637925  5698
STARLINK-1246,45235,53.1582,0.0001431,15.30203942,474.22258634630634,476.18401233997884,1 45235U 20012BK  26085.86945864  .00001769  00000+0  71851-4 0  9993,2 45235  53.1582 319.4520 0001431  93.8863 266.2302 15.30203942337604
STARLINK-1270,45237,53.0477,0.0001984,15.49561857,416.6584984308829,419.35520831190024,1 45237U 20012BM  26085.49389680  .00081665  00000+0  14480-2 0  9998,2 45237  53.0477 267.1191 0001984 179.4774 180.6236 15.49561857338277
STARLINK-1279,45360,53.0421,0.0002507,15.60299915,385.0940887240213,388.48602314986783,1 45360U 20019A   26085.24023805  .00103998  00000+0  12390-2 0  9991,2 45360  53.0421  18.2162 0002507 153.0660 207.0483 15.60299915333257
STARLINK-1301,45361,53.0436,6.44e-05,15.66918686,367.2918444096749,368.16071159988223,1 45361U 20019B   26085.25437139  .00058180  00000+0  53980-3 0  9995,2 45361  53.0436  22.6571 0000644 208.9335 151.1645 15.66918686333209
STARLINK-1262,45366,53.1586,0.0001453,15.29353167,476.74856715727947,478.74088638708054,1 45366U 20019G   26085.27090416  .00002633  00000+0  10354-3 0  9995,2 45366  53.1586  88.1871 0001453  85.4118 274.7048 15.29353167332290
STARLINK-1273,45367,53.0514,0.0004164,15.46541338,424.0193195044658,429.6865151075972,1 45367U 20019H   26085.67171905  .00076644  00000+0  15108-2 0  9997,2 45367  53.0514  73.8812 0004164  61.7286 298.4140 15.46541338332522
STARLINK-1277,45369,53.0507,0.0005911,15.51548494,408.1905553133847,416.2180968290668,1 45369U 20019K   26085.26235149  .00081989  00000+0  13541-2 0  9992,2 45369  53.0507  73.0576 0005911  66.8126 293.3505 15.51548494332508
STARLINK-1281,45370,53.161,0.0001308,15.30184862,474.3638447685071,476.156693494112,1 45370U 20019L   26085.39202308  .00000513  00000+0  29467-4 0  9999,2 45370  53.1610  87.7078 0001308  93.9872 266.1278 15.30184862332316
STARLINK-1300,45374,53.1616,0.000134,15.30195702,474.3095516057074,476.1462533995791,1 45374U 20019Q   26085.41415228  .00002827  00000+0  10755-3 0  9992,2 45374  53.1616  87.6107 0001340  78.1468 281.9683 15.30195702332310
STARLINK-1302,45375,53.0528,0.0003697,15.56623105,394.9336333719948,399.9434939437633,1 45375U 20019R   26085.92902372  .00113166  00000+0  15459-2 0  9994,2 45375  53.0528  68.4027 0003697  25.5970 334.5223 15.56623105332621
STARLINK-1304,45376,53.0495,0.0003755,15.50934683,411.4453639077192,416.5462556478633,1 45376U 20019S   26085.67150381  .00088030  00000+0  14849-2 0  9995,2 45376  53.0495  68.0525 0003755  49.8503 310.2834 15.50934683332607
STARLINK-1305,45377,53.0444,0.0003951,15.56089074,396.3110298525653,401.66631455874176,1 45377U 20019T   26085.61746384  .00098756  00000+0  13793-2 0  9997,2 45377  53.0444  50.4530 0003951 131.5769 228.5581 15.56089074332852
STARLINK-1319,45379,53.0444,0.0002991,15.67224379,364.83162018385974,368.86647083628486,1 45379U 20019V   26085.89983909  .00068870  00000+0  62930-3 0  9997,2 45379  53.0444  45.0903 0002991  99.5635 260.5718 15.67224379332956
STARLINK-1266,45383,53.0504,0.000509,15.4782412,419.6307482862567,426.5543999927313,1 45383U 20019Z   26085.32940677  .00034233  00000+0  65356-3 0  9996,2 45383  53.0504  53.5058 0005090  74.0263 286.1305 15.47824120332775
STARLINK-1267,45384,53.0515,0.0002381,15.52567646,407.6163389828753,410.8484842966982,1 45384U 20019AA  26085.30703214  .00087925  00000+0  13992-2 0  9993,2 45384  53.0515  47.1242 0002381   2.5106 357.5914 15.52567646332866
STARLINK-1272,45386,53.0459,0.0002986,15.59023182,388.4617828042583,392.50400260418155,1 45386U 20019AC  26085.86190191  .00132933  00000+0  16547-2 0  9999,2 45386  53.0459  26.3984 0002986 149.3004 210.8183 15.59023182333202
STARLINK-1274,45387,53.0295,0.0001986,15.49668326,416.3459142304282,419.0452189258731,1 45387U 20019AD  26085.24555186  .00074494  00000+0  13178-2 0  9995,2 45387  53.0295  23.6363 0001986 267.7091  92.3689 15.49668326333187
STARLINK-1280,45388,53.0435,0.000186,15.6751464,364.76194886540543,367.27077391584317,1 45388U 20019AE  26085.11107387  .00061368  00000+0  55531-3 0  9994,2 45388  53.0435  41.7053 0001860 112.2232 247.8981 15.67514640332914
STARLINK-1283,45389,53.045,0.000102,15.63161561,377.84208437123925,379.2204446972046,1 45389U 20019AF  26085.83355686  .00051088  00000+0  55142-3 0  9997,2 45389  53.0450  26.5616 0001020  91.4991 268.6139 15.63161561333201
STARLINK-1284,45390,53.0481,0.0005116,15.54533334,400.0400188296753,406.97899953787146,1 45390U 20019AG  26085.27926532  .00082466  00000+0  12229-2 0  9993,2 45390  53.0481  50.9926 0005116  79.3890 280.7695 15.54533334332803
STARLINK-1297,45395,53.0469,0.0005876,15.57342253,391.3724214892045,399.3326263777308,1 45395U 20019AM  26085.90541757  .00118131  00000+0  15692-2 0  9996,2 45395  53.0469  47.3661 0005876  83.8956 276.2725 15.57342253332092
STARLINK-1307,45397,53.0562,0.0003105,15.50877082,412.0549766500235,416.2729955623963,1 45397U 20019AP  26085.31355836  .00027184  00000+0  46845-3 0  9996,2 45397  53.0562  50.9290 0003105  75.3610 284.7742 15.50877082332631
STARLINK-1255,45399,53.0426,0.0001717,15.54805104,401.5549541535556,403.88350018196616,1 45399U 20019AR  26085.09550457  .00109764  00000+0  16044-2 0  9991,2 45399  53.0426  23.6023 0001717  93.7758 266.3448 15.54805104332984
STARLINK-1260,45404,53.161,0.0001315,15.30740114,472.70185678774305,474.503864371075,1 45404U 20019AW  26085.28659066  .00047295  00000+0  15723-2 0  9998,2 45404  53.1610  52.1397 0001315  95.6544 264.4607 15.30740114332514
STARLINK-1263,45405,53.1614,0.0001227,15.30203358,474.36413798625927,476.04594812362484,1 45405U 20019AX  26085.40671906 -.00003604  00000+0 -10960-3 0  9997,2 45405  53.1614  51.6204 0001227  94.8615 265.2526 15.30203358332537
